[{"OBJECT_NAME":"YAOGAN-36 02B","OBJECT_ID":"2022-133B","EPOCH":"2026-03-09T22:42:31.775904","MEAN_MOTION":15.30199518,"ECCENTRICITY":0.00056841,"INCLINATION":34.9983,"RA_OF_ASC_NODE":22.5268,"ARG_OF_PERICENTER":273.0351,"MEAN_ANOMALY":86.9715,"EPHEMERIS_TYPE":0,"CLASSIFICATION_TYPE":"U","NORAD_CAT_ID":54043,"ELEMENT_SET_NO":999,"REV_AT_EPOCH":18962,"BSTAR":0.00051218814,"MEAN_MOTION_DOT":0.00015352,"MEAN_MOTION_DDOT":0},{"OBJECT_NAME":"STARLINK-35704","OBJECT_ID":"2025-244R","EPOCH":"2026-03-09T17:20:49.087968","MEAN_MOTION":15.3017154,"ECCENTRICITY":0.00011299,"INCLINATION":53.1586,"RA_OF_ASC_NODE":229.8229,"ARG_OF_PERICENTER":70.9723,"MEAN_ANOMALY":289.14,"EPHEMERIS_TYPE":0,"CLASSIFICATION_TYPE":"U","NORAD_CAT_ID":66221,"ELEMENT_SET_NO":999,"REV_AT_EPOCH":2166,"BSTAR":0.00052518206,"MEAN_MOTION_DOT":0.00015213,"MEAN_MOTION_DDOT":0}]
